{
  "type": "FeatureCollection",
  "name": "Taxila integrated field-inspection priority",
  "crs": {
    "type": "name",
    "properties": {
      "name": "urn:ogc:def:crs:OGC:1.3:CRS84"
    }
  },
  "features": [
    {
      "type": "Feature",
      "geometry": {
        "type": "Point",
        "coordinates": [
          72.909294444,
          33.7992
        ]
      },
      "properties": {
        "component_id": "139-001",
        "name": "Khanpur Cave",
        "coordinate_status": "official_web_point",
        "source_authority": "UNESCO World Heritage Centre",
        "source_url": "https://whc.unesco.org/en/list/139/maps/",
        "legal_buffer_available": false,
        "longitude": 72.909294444,
        "latitude": 33.7992,
        "local_priority_score_500m": 0.4308823529411765,
        "landscape_pressure_score": 0.4205882352941176,
        "terrain_susceptibility_score": 0.4411764705882353,
        "rank_250m": 15.0,
        "rank_500m": 14.0,
        "rank_1000m": 11.0,
        "bootstrap_rank_median": 14.0,
        "bootstrap_rank_ci_low_95": 8.5,
        "bootstrap_rank_ci_high_95": 16.0,
        "interpretation": "relative field-inspection priority; not validated monument damage"
      }
    },
    {
      "type": "Feature",
      "geometry": null,
      "properties": {
        "component_id": "139-002",
        "name": "Saraikala, prehistoric mound",
        "coordinate_status": "official_id_geometry_missing",
        "source_authority": "UNESCO World Heritage Centre",
        "source_url": "https://whc.unesco.org/en/list/139/maps/",
        "legal_buffer_available": false,
        "longitude": null,
        "latitude": null
      }
    },
    {
      "type": "Feature",
      "geometry": {
        "type": "Point",
        "coordinates": [
          72.819330556,
          33.743944444
        ]
      },
      "properties": {
        "component_id": "139-003",
        "name": "Bhir Mound",
        "coordinate_status": "official_web_point",
        "source_authority": "UNESCO World Heritage Centre",
        "source_url": "https://whc.unesco.org/en/list/139/maps/",
        "legal_buffer_available": false,
        "longitude": 72.819330556,
        "latitude": 33.743944444,
        "local_priority_score_500m": 0.3397058823529412,
        "landscape_pressure_score": 0.2970588235294118,
        "terrain_susceptibility_score": 0.3823529411764705,
        "rank_250m": 14.0,
        "rank_500m": 17.0,
        "rank_1000m": 17.0,
        "bootstrap_rank_median": 16.0,
        "bootstrap_rank_ci_low_95": 13.0,
        "bootstrap_rank_ci_high_95": 16.0,
        "interpretation": "relative field-inspection priority; not validated monument damage"
      }
    },
    {
      "type": "Feature",
      "geometry": {
        "type": "Point",
        "coordinates": [
          72.829877778,
          33.753402778
        ]
      },
      "properties": {
        "component_id": "139-004",
        "name": "Sirkap (fortified city)",
        "coordinate_status": "official_web_point",
        "source_authority": "UNESCO World Heritage Centre",
        "source_url": "https://whc.unesco.org/en/list/139/maps/",
        "legal_buffer_available": false,
        "longitude": 72.829877778,
        "latitude": 33.753402778,
        "local_priority_score_500m": 0.4799019607843137,
        "landscape_pressure_score": 0.5970588235294118,
        "terrain_susceptibility_score": 0.3627450980392157,
        "rank_250m": 10.0,
        "rank_500m": 12.0,
        "rank_1000m": 15.0,
        "bootstrap_rank_median": 10.0,
        "bootstrap_rank_ci_low_95": 6.0,
        "bootstrap_rank_ci_high_95": 13.0,
        "interpretation": "relative field-inspection priority; not validated monument damage"
      }
    },
    {
      "type": "Feature",
      "geometry": {
        "type": "Point",
        "coordinates": [
          72.849738889,
          33.772255556
        ]
      },
      "properties": {
        "component_id": "139-005",
        "name": "Sirsukh (fortified ruined city)",
        "coordinate_status": "official_web_point",
        "source_authority": "UNESCO World Heritage Centre",
        "source_url": "https://whc.unesco.org/en/list/139/maps/",
        "legal_buffer_available": false,
        "longitude": 72.849738889,
        "latitude": 33.772255556,
        "local_priority_score_500m": 0.5014705882352941,
        "landscape_pressure_score": 0.5617647058823529,
        "terrain_susceptibility_score": 0.4411764705882353,
        "rank_250m": 8.0,
        "rank_500m": 9.0,
        "rank_1000m": 10.0,
        "bootstrap_rank_median": 9.0,
        "bootstrap_rank_ci_low_95": 5.5,
        "bootstrap_rank_ci_high_95": 13.0,
        "interpretation": "relative field-inspection priority; not validated monument damage"
      }
    },
    {
      "type": "Feature",
      "geometry": {
        "type": "Point",
        "coordinates": [
          72.842666667,
          33.744669444
        ]
      },
      "properties": {
        "component_id": "139-006",
        "name": "Dharmarajika stupa and monastery",
        "coordinate_status": "official_web_point",
        "source_authority": "UNESCO World Heritage Centre",
        "source_url": "https://whc.unesco.org/en/list/139/maps/",
        "legal_buffer_available": false,
        "longitude": 72.842666667,
        "latitude": 33.744669444,
        "local_priority_score_500m": 0.5362745098039217,
        "landscape_pressure_score": 0.5529411764705883,
        "terrain_susceptibility_score": 0.5196078431372549,
        "rank_250m": 3.0,
        "rank_500m": 5.0,
        "rank_1000m": 6.0,
        "bootstrap_rank_median": 6.0,
        "bootstrap_rank_ci_low_95": 3.0,
        "bootstrap_rank_ci_high_95": 11.0,
        "interpretation": "relative field-inspection priority; not validated monument damage"
      }
    },
    {
      "type": "Feature",
      "geometry": {
        "type": "Point",
        "coordinates": [
          72.860722222,
          33.760805556
        ]
      },
      "properties": {
        "component_id": "139-007",
        "name": "Khader Mohra (Akhuri)",
        "coordinate_status": "official_web_point",
        "source_authority": "UNESCO World Heritage Centre",
        "source_url": "https://whc.unesco.org/en/list/139/maps/",
        "legal_buffer_available": false,
        "longitude": 72.860722222,
        "latitude": 33.760805556,
        "local_priority_score_500m": 0.5352941176470587,
        "landscape_pressure_score": 0.5117647058823529,
        "terrain_susceptibility_score": 0.5588235294117646,
        "rank_250m": 7.0,
        "rank_500m": 6.0,
        "rank_1000m": 3.0,
        "bootstrap_rank_median": 9.0,
        "bootstrap_rank_ci_low_95": 3.0,
        "bootstrap_rank_ci_high_95": 15.0,
        "interpretation": "relative field-inspection priority; not validated monument damage"
      }
    },
    {
      "type": "Feature",
      "geometry": {
        "type": "Point",
        "coordinates": [
          72.839752778,
          33.746291667
        ]
      },
      "properties": {
        "component_id": "139-008",
        "name": "Kalawan group of buildings",
        "coordinate_status": "official_web_point",
        "source_authority": "UNESCO World Heritage Centre",
        "source_url": "https://whc.unesco.org/en/list/139/maps/",
        "legal_buffer_available": false,
        "longitude": 72.839752778,
        "latitude": 33.746291667,
        "local_priority_score_500m": 0.5191176470588235,
        "landscape_pressure_score": 0.5676470588235294,
        "terrain_susceptibility_score": 0.4705882352941176,
        "rank_250m": 12.0,
        "rank_500m": 7.0,
        "rank_1000m": 9.0,
        "bootstrap_rank_median": 9.0,
        "bootstrap_rank_ci_low_95": 4.5,
        "bootstrap_rank_ci_high_95": 14.0,
        "interpretation": "relative field-inspection priority; not validated monument damage"
      }
    },
    {
      "type": "Feature",
      "geometry": {
        "type": "Point",
        "coordinates": [
          72.883325,
          33.729088889
        ]
      },
      "properties": {
        "component_id": "139-009",
        "name": "Giri complex of monuments",
        "coordinate_status": "official_web_point",
        "source_authority": "UNESCO World Heritage Centre",
        "source_url": "https://whc.unesco.org/en/list/139/maps/",
        "legal_buffer_available": false,
        "longitude": 72.883325,
        "latitude": 33.729088889,
        "local_priority_score_500m": 0.5911764705882352,
        "landscape_pressure_score": 0.5058823529411764,
        "terrain_susceptibility_score": 0.676470588235294,
        "rank_250m": 4.0,
        "rank_500m": 1.0,
        "rank_1000m": 2.0,
        "bootstrap_rank_median": 2.0,
        "bootstrap_rank_ci_low_95": 1.0,
        "bootstrap_rank_ci_high_95": 3.0,
        "interpretation": "relative field-inspection priority; not validated monument damage"
      }
    },
    {
      "type": "Feature",
      "geometry": {
        "type": "Point",
        "coordinates": [
          72.831444444,
          33.750552778
        ]
      },
      "properties": {
        "component_id": "139-010",
        "name": "Kunala stupa and monastery",
        "coordinate_status": "official_web_point",
        "source_authority": "UNESCO World Heritage Centre",
        "source_url": "https://whc.unesco.org/en/list/139/maps/",
        "legal_buffer_available": false,
        "longitude": 72.831444444,
        "latitude": 33.750552778,
        "local_priority_score_500m": 0.5009803921568627,
        "landscape_pressure_score": 0.5411764705882353,
        "terrain_susceptibility_score": 0.4607843137254901,
        "rank_250m": 5.0,
        "rank_500m": 10.5,
        "rank_1000m": 13.0,
        "bootstrap_rank_median": 8.0,
        "bootstrap_rank_ci_low_95": 4.5,
        "bootstrap_rank_ci_high_95": 12.0,
        "interpretation": "relative field-inspection priority; not validated monument damage"
      }
    },
    {
      "type": "Feature",
      "geometry": {
        "type": "Point",
        "coordinates": [
          72.828913889,
          33.764455556
        ]
      },
      "properties": {
        "component_id": "139-011",
        "name": "Jandial complex",
        "coordinate_status": "official_web_point",
        "source_authority": "UNESCO World Heritage Centre",
        "source_url": "https://whc.unesco.org/en/list/139/maps/",
        "legal_buffer_available": false,
        "longitude": 72.828913889,
        "latitude": 33.764455556,
        "local_priority_score_500m": 0.3485294117647058,
        "landscape_pressure_score": 0.2558823529411764,
        "terrain_susceptibility_score": 0.4411764705882353,
        "rank_250m": 16.0,
        "rank_500m": 16.0,
        "rank_1000m": 16.0,
        "bootstrap_rank_median": 14.0,
        "bootstrap_rank_ci_low_95": 12.0,
        "bootstrap_rank_ci_high_95": 16.0,
        "interpretation": "relative field-inspection priority; not validated monument damage"
      }
    },
    {
      "type": "Feature",
      "geometry": {
        "type": "Point",
        "coordinates": [
          72.868019444,
          33.781802778
        ]
      },
      "properties": {
        "component_id": "139-012",
        "name": "Lalchak and Badalpur Buddhist stuppa",
        "coordinate_status": "official_web_point",
        "source_authority": "UNESCO World Heritage Centre",
        "source_url": "https://whc.unesco.org/en/list/139/maps/",
        "legal_buffer_available": false,
        "longitude": 72.868019444,
        "latitude": 33.781802778,
        "local_priority_score_500m": 0.392156862745098,
        "landscape_pressure_score": 0.4705882352941176,
        "terrain_susceptibility_score": 0.3137254901960784,
        "rank_250m": 17.0,
        "rank_500m": 15.0,
        "rank_1000m": 12.0,
        "bootstrap_rank_median": 17.0,
        "bootstrap_rank_ci_low_95": 16.0,
        "bootstrap_rank_ci_high_95": 17.0,
        "interpretation": "relative field-inspection priority; not validated monument damage"
      }
    },
    {
      "type": "Feature",
      "geometry": {
        "type": "Point",
        "coordinates": [
          72.861052778,
          33.761097222
        ]
      },
      "properties": {
        "component_id": "139-013",
        "name": "Mohra Moradu stupa and monastery",
        "coordinate_status": "official_web_point",
        "source_authority": "UNESCO World Heritage Centre",
        "source_url": "https://whc.unesco.org/en/list/139/maps/",
        "legal_buffer_available": false,
        "longitude": 72.861052778,
        "latitude": 33.761097222,
        "local_priority_score_500m": 0.5392156862745099,
        "landscape_pressure_score": 0.5,
        "terrain_susceptibility_score": 0.5784313725490197,
        "rank_250m": 11.0,
        "rank_500m": 4.0,
        "rank_1000m": 5.0,
        "bootstrap_rank_median": 8.0,
        "bootstrap_rank_ci_low_95": 3.0,
        "bootstrap_rank_ci_high_95": 15.0,
        "interpretation": "relative field-inspection priority; not validated monument damage"
      }
    },
    {
      "type": "Feature",
      "geometry": {
        "type": "Point",
        "coordinates": [
          72.866686111,
          33.765922222
        ]
      },
      "properties": {
        "component_id": "139-014",
        "name": "Pippala stupa and monastery",
        "coordinate_status": "official_web_point",
        "source_authority": "UNESCO World Heritage Centre",
        "source_url": "https://whc.unesco.org/en/list/139/maps/",
        "legal_buffer_available": false,
        "longitude": 72.866686111,
        "latitude": 33.765922222,
        "local_priority_score_500m": 0.5009803921568627,
        "landscape_pressure_score": 0.4529411764705882,
        "terrain_susceptibility_score": 0.5490196078431372,
        "rank_250m": 6.0,
        "rank_500m": 10.5,
        "rank_1000m": 8.0,
        "bootstrap_rank_median": 8.0,
        "bootstrap_rank_ci_low_95": 3.5,
        "bootstrap_rank_ci_high_95": 12.0,
        "interpretation": "relative field-inspection priority; not validated monument damage"
      }
    },
    {
      "type": "Feature",
      "geometry": {
        "type": "Point",
        "coordinates": [
          72.875311111,
          33.765041667
        ]
      },
      "properties": {
        "component_id": "139-015",
        "name": "Jaulian stupa and monastery",
        "coordinate_status": "official_web_point",
        "source_authority": "UNESCO World Heritage Centre",
        "source_url": "https://whc.unesco.org/en/list/139/maps/",
        "legal_buffer_available": false,
        "longitude": 72.875311111,
        "latitude": 33.765041667,
        "local_priority_score_500m": 0.5676470588235294,
        "landscape_pressure_score": 0.5176470588235295,
        "terrain_susceptibility_score": 0.6176470588235294,
        "rank_250m": 2.0,
        "rank_500m": 3.0,
        "rank_1000m": 1.0,
        "bootstrap_rank_median": 4.0,
        "bootstrap_rank_ci_low_95": 2.0,
        "bootstrap_rank_ci_high_95": 8.5,
        "interpretation": "relative field-inspection priority; not validated monument damage"
      }
    },
    {
      "type": "Feature",
      "geometry": {
        "type": "Point",
        "coordinates": [
          72.849469444,
          33.77445
        ]
      },
      "properties": {
        "component_id": "139-016",
        "name": "Lalchak mounds",
        "coordinate_status": "official_web_point",
        "source_authority": "UNESCO World Heritage Centre",
        "source_url": "https://whc.unesco.org/en/list/139/maps/",
        "legal_buffer_available": false,
        "longitude": 72.849469444,
        "latitude": 33.77445,
        "local_priority_score_500m": 0.446078431372549,
        "landscape_pressure_score": 0.5588235294117647,
        "terrain_susceptibility_score": 0.3333333333333333,
        "rank_250m": 13.0,
        "rank_500m": 13.0,
        "rank_1000m": 14.0,
        "bootstrap_rank_median": 14.0,
        "bootstrap_rank_ci_low_95": 11.0,
        "bootstrap_rank_ci_high_95": 16.0,
        "interpretation": "relative field-inspection priority; not validated monument damage"
      }
    },
    {
      "type": "Feature",
      "geometry": {
        "type": "Point",
        "coordinates": [
          72.825358333,
          33.813497222
        ]
      },
      "properties": {
        "component_id": "139-017",
        "name": "Buddhist remains around Bhallar stupa",
        "coordinate_status": "official_web_point",
        "source_authority": "UNESCO World Heritage Centre",
        "source_url": "https://whc.unesco.org/en/list/139/maps/",
        "legal_buffer_available": false,
        "longitude": 72.825358333,
        "latitude": 33.813497222,
        "local_priority_score_500m": 0.517156862745098,
        "landscape_pressure_score": 0.338235294117647,
        "terrain_susceptibility_score": 0.6960784313725489,
        "rank_250m": 9.0,
        "rank_500m": 8.0,
        "rank_1000m": 7.0,
        "bootstrap_rank_median": 1.0,
        "bootstrap_rank_ci_low_95": 1.0,
        "bootstrap_rank_ci_high_95": 5.0,
        "interpretation": "relative field-inspection priority; not validated monument damage"
      }
    },
    {
      "type": "Feature",
      "geometry": {
        "type": "Point",
        "coordinates": [
          72.880522222,
          33.727769444
        ]
      },
      "properties": {
        "component_id": "139-018",
        "name": "Giri Mosque and tombs",
        "coordinate_status": "official_web_point",
        "source_authority": "UNESCO World Heritage Centre",
        "source_url": "https://whc.unesco.org/en/list/139/maps/",
        "legal_buffer_available": false,
        "longitude": 72.880522222,
        "latitude": 33.727769444,
        "local_priority_score_500m": 0.5725490196078431,
        "landscape_pressure_score": 0.488235294117647,
        "terrain_susceptibility_score": 0.6568627450980392,
        "rank_250m": 1.0,
        "rank_500m": 2.0,
        "rank_1000m": 4.0,
        "bootstrap_rank_median": 3.0,
        "bootstrap_rank_ci_low_95": 1.9750000000000014,
        "bootstrap_rank_ci_high_95": 5.0,
        "interpretation": "relative field-inspection priority; not validated monument damage"
      }
    }
  ]
}
